BEIDOU 3 (C01)          
1 36287U 10001A   20236.55663598 -.00000295  00000-0  00000-0 0  9995
2 36287   1.4954  30.5374 0005516 114.6934 167.9002  1.00273304 38880
BEIDOU 5 (C06)          
1 36828U 10036A   20236.49390218 -.00000120  00000-0  10000-3 0  9994
2 36828  54.1697 182.3670 0101118 235.3630 209.3608  1.00295980 36924
BEIDOU 6 (C04)          
1 37210U 10057A   20236.60773906 -.00000127  00000-0  00000-0 0  9998
2 37210   0.9233  53.2437 0005509 121.5091 176.3728  1.00270692 35980
BEIDOU 7 (C07)          
1 37256U 10068A   20236.10704034 -.00000206  00000-0  00000-0 0  9999
2 37256  51.3681 297.5462 0082247 213.5431 337.3627  1.00291792 35501
BEIDOU 8 (C08)          
1 37384U 11013A   20236.23160272 -.00000179  00000-0  10000-3 0  9999
2 37384  59.3638  60.9162 0049998 200.9410 271.5568  1.00287951 34385
BEIDOU 9 (C09)          
1 37763U 11038A   20236.35569866 -.00000084  00000-0  10000-3 0  9997
2 37763  54.4530 184.7619 0073934 225.6478 145.4624  1.00280701 33354
BEIDOU 10 (C10)         
1 37948U 11073A   20236.10925793 -.00000149  00000-0  10000-3 0  9991
2 37948  51.4632 297.1442 0071014 214.1705 315.7929  1.00281068 32104
BEIDOU 11 (C05)         
1 38091U 12008A   20236.64568862  .00000042  00000-0  00000-0 0  9996
2 38091   1.6159  68.4520 0001771 276.6170 278.4184  1.00271787 31185
BEIDOU 12 (C11)         
1 38250U 12018A   20236.38684159 -.00000076  00000-0  10000-3 0  9995
2 38250  56.7434  15.4606 0021377 238.3714  15.1305  1.86234437 56733
BEIDOU 13 (C12)         
1 38251U 12018B   20235.88289142 -.00000075  00000-0  00000-0 0  9998
2 38251  56.6691  14.8445 0012416 237.2179  83.6249  1.86232781 56725
BEIDOU 15 (C14)         
1 38775U 12050B   20236.60443580 -.00000009  00000-0  00000-0 0  9991
2 38775  55.0838 134.0307 0015227 320.4993 320.6413  1.86232430 54115
BEIDOU 16 (C02)         
1 38953U 12059A   20236.58208500 -.00000191  00000-0  00000-0 0  9998
2 38953   1.2591  84.1540 0006375 265.3074 276.4782  1.00271125 28755
BEIDOU 17 (C31)         
1 40549U 15019A   20235.51082970 -.00000185  00000-0  00000+0 0  9996
2 40549  52.9586 320.4448 0040492 189.9567 102.1741  1.00273265 19774
BEIDOU 18 (C57)         
1 40748U 15037A   20236.58451094 -.00000080  00000-0  00000-0 0  9997
2 40748  55.9386  14.0865 0002662  45.5885 295.5271  1.86232178 34563
BEIDOU 19 (C58)         
1 40749U 15037B   20236.52041751 -.00000080  00000-0  00000-0 0  9997
2 40749  55.9397  14.0743 0002468 308.8133 126.3878  1.86232308 34565
BEIDOU 20 (C18)         
1 40938U 15053A   20236.32430219 -.00000110  00000-0  00000-0 0  9998
2 40938  52.5165 283.4659 0051924 190.5541  69.0665  1.00258042 18062
BEIDOU IGSO-6 (C13)     
1 41434U 16021A   20236.47585553 -.00000139  00000-0  00000-0 0  9995
2 41434  57.1280  59.7975 0040065 203.3316 334.9552  1.00286508 16194
BEIDOU-2 G7 (C03)       
1 41586U 16037A   20236.55070395 -.00000369  00000-0  00000-0 0  9997
2 41586   1.6266  66.1804 0007776   7.4497 207.4459  1.00268671 15491
BEIDOU-3 M1 (C19)       
1 43001U 17069A   20236.22313064 -.00000004  00000-0  00000-0 0  9990
2 43001  55.2372 133.9543 0009857 294.1778 248.0717  1.86232006 19040
BEIDOU-3 M2 (C20)       
1 43002U 17069B   20236.33299769 -.00000005  00000-0  00000-0 0  9999
2 43002  55.2380 133.9861 0009277 315.4372 344.2888  1.86231578 19036
BEIDOU-3 M3 (C27)       
1 43107U 18003A   20236.52244905 -.00000080  00000-0  00000-0 0  9990
2 43107  55.3717  15.3030 0004427  53.9537 178.6627  1.86232709 17807
BEIDOU-3 M4 (C28)       
1 43108U 18003B   20236.21814593 -.00000079  00000-0  00000-0 0  9991
2 43108  55.3668  15.3058 0003020 218.3428 215.4052  1.86232857 17803
BEIDOU-3 M5 (C21)       
1 43207U 18018A   20236.01884494 -.00000001  00000-0  00000-0 0  9997
2 43207  55.1954 134.0984 0006801 341.0457  18.9891  1.86231594 17187
BEIDOU-3 M6 (C22)       
1 43208U 18018B   20236.08559868 -.00000002  00000-0  00000-0 0  9990
2 43208  55.1950 134.1011 0007895 308.0568  51.9320  1.86231473 17186
BEIDOU-3 M7 (C29)       
1 43245U 18029A   20236.43454163 -.00000081  00000-0  00000+0 0  9990
2 43245  55.3170  13.1128 0000788 135.9129 307.8064  1.86232871 16340
BEIDOU-3 M8 (C30)       
1 43246U 18029B   20236.33989031 -.00000081  00000-0  10000-3 0  9992
2 43246  55.3105  13.1481 0003161 348.6428  77.5321  1.86233016 16332
BEIDOU IGSO-7 (C16)     
1 43539U 18057A   20236.05883978 -.00000130  00000-0  00000+0 0  9990
2 43539  55.0499 181.6461 0034640 213.4491  67.3031  1.00293179  7858
BEIDOU-3 M9 (C23)       
1 43581U 18062A   20236.42166503  .00000047  00000-0  00000+0 0  9998
2 43581  54.5359 254.8343 0006328 258.2442  72.2835  1.86231934 14075
BEIDOU-3 M10 (C24)      
1 43582U 18062B   20236.39067084  .00000047  00000-0  00000+0 0  9999
2 43582  54.5365 254.8239 0004627 315.2991  85.4248  1.86232193 14083
BEIDOU-3 M11 (C25)      
1 43602U 18067A   20236.26571328  .00000049  00000-0  00000+0 0  9996
2 43602  54.6073 253.3860 0006263 340.4205  19.3967  1.86231723 13567
BEIDOU-3 M12 (C26)      
1 43603U 18067B   20236.41971249  .00000049  00000-0  00000-0 0  9991
2 43603  54.6039 253.3494 0004008 319.9737  53.6150  1.86231654 13590
BEIDOU-3 M13 (C32)      
1 43622U 18072A   20236.26793762 -.00000005  00000-0  00000-0 0  9996
2 43622  55.1601 133.6670 0006600 293.1570   9.1033  1.86232012 13096
BEIDOU-3 M14 (C33)      
1 43623U 18072B   20236.50636634 -.00000008  00000-0  00000-0 0  9991
2 43623  55.1611 133.6515 0005513 321.1136 231.2252  1.86232114 13104
BEIDOU-3 M15 (C34)      
1 43647U 18078A   20236.38079807 -.00000081  00000-0  10000-3 0  9997
2 43647  55.2081  13.3295 0005562 353.7707   9.5489  1.86233032 12624
BEIDOU-3 M16 (C35)      
1 43648U 18078B   20235.40467449 -.00000078  00000-0  10000-3 0  9999
2 43648  55.2062  13.3721 0003637  10.7028 327.1495  1.86232621 12602
BEIDOU-3 G1 (C59)       
1 43683U 18085A   20236.55654875 -.00000295  00000-0  00000-0 0  9991
2 43683   1.6288 252.3843 0004605 348.9670  71.2350  1.00267176  6778
BEIDOU-3 M17 (C36)      
1 43706U 18093A   20236.24753929  .00000047  00000-0  00000-0 0  9996
2 43706  54.6158 254.6759 0011912 261.9557 176.8076  1.86231911 11973
BEIDOU-3 M18 (C37)      
1 43707U 18093B   20236.15049319  .00000047  00000-0  00000+0 0  9997
2 43707  54.6156 254.6705 0010131 279.9345 184.3368  1.86232087 11972
BEIDOU-3 IGSO-1 (C38)   
1 44204U 19023A   20236.42549372 -.00000201  00000-0  10000-3 0  9996
2 44204  55.5900  60.1760 0018012 178.3391   0.5585  1.00274194  5066
BEIDOU-2 G8             
1 44231U 19027A   20236.58160962 -.00000262  00000-0  00000-0 0  9994
2 44231   0.8367 299.2476 0007281 266.4762 120.5417  1.00272904  4795
BEIDOU-3 IGSO-2 (C39)   
1 44337U 19035A   20236.49318267 -.00000127  00000-0  00000-0 0  9993
2 44337  55.0747 177.6941 0014126 189.5617 250.4546  1.00270290  4402
BEIDOU-3 M23 (C45)      
1 44542U 19061A   20236.58403113  .00000049  00000-0  10000-3 0  9991
2 44542  54.8397 254.6758 0008810 306.1856  42.6737  1.86231411  6237
BEIDOU-3 M24 (C46)      
1 44543U 19061B   20236.34105303  .00000048  00000-0  10000-3 0  9995
2 44543  54.8392 254.6539 0006911 290.6890 165.7408  1.86231757  6241
BEIDOU-3 IGSO-3         
1 44709U 19073A   20236.32400124 -.00000164  00000-0  10000-3 0  9999
2 44709  58.2967 303.2215 0025495 189.7169  62.4088  1.00264481  3158
BEIDOU-3 M21            
1 44793U 19078A   20236.46018863 -.00000082  00000-0  10000-3 0  9996
2 44793  55.0526  13.4328 0005448   1.3652   9.9696  1.86232385  5104
BEIDOU-3 M22            
1 44794U 19078B   20236.52109293 -.00000082  00000-0  10000-3 0  9992
2 44794  55.0189  13.4372 0003713 359.3944 323.1878  1.86232901  5097
BEIDOU-3 M19            
1 44864U 19090A   20236.48168350 -.00000007  00000-0  00000-0 0  9991
2 44864  55.0947 133.9074 0015289 265.9626 224.8725  1.86232079  4682
BEIDOU-3 M20            
1 44865U 19090B   20236.46837131 -.00000007  00000-0  10000-3 0  9994
2 44865  55.0981 133.9406 0014558 282.6467 289.2031  1.86232068  4668
BEIDOU-3 G2             
1 45344U 20017A   20236.54468466 -.00000155  00000-0  00000-0 0  9998
2 45344   2.8561 329.4462 0002581 168.4718 110.4942  1.00271135  1962
BEIDOU-3 G3             
1 45807U 20040A   20236.59163615 -.00000368  00000-0  00000-0 0  9997
2 45807   2.9689 298.6973 0006767 346.5711  10.5948  1.00268852   770
